NORAD_CAT_ID,OBJECT_NAME,OBJECT_TYPE,EPOCH,MEAN_MOTION,ECCENTRICITY,INCLINATION,RA_OF_ASC_NODE,ARG_OF_PERICENTER,MEAN_ANOMALY,BSTAR,MEAN_MOTION_DOT,MEAN_MOTION_DDOT,TLE_LINE0,TLE_LINE1,TLE_LINE2,SEMIMAJOR_AXIS,PERIOD,APOGEE,PERIGEE,DECAYED
53561.0,STARLINK-4563,PAYLOAD,2023-11-04 10:17:30,15.08850003,0.0001519,53.2161,308.0272,92.4064,267.7102,0.00027615,4.111e-05,0.0,0 STARLINK-4563,1 53561U 22101AL  23308.42881962  .00004111  00000-0  27615-3 0  9993,2 53561  53.2161 308.0272 0001519  92.4064 267.7102 15.08850003 67045,6917.85,95.437,540.766,538.664,0.0
53561.0,STARLINK-4563,PAYLOAD,2023-11-04 16:39:02,15.08842542,0.0001524,53.216,306.8356,89.233,270.8837,0.00015131,2.121e-05,0.0,0 STARLINK-4563,1 53561U 22101AL  23308.69378210  .00002121  00000-0  15131-3 0  9998,2 53561  53.2160 306.8356 0001524  89.2330 270.8837 15.08842542 67082,6917.873,95.437,540.792,538.683,0.0
53561.0,STARLINK-4563,PAYLOAD,2023-11-05 06:57:30,15.08858539,0.0001674,53.2165,304.1634,102.8395,257.2784,0.00047513,7.286e-05,0.0,0 STARLINK-4563,1 53561U 22101AL  23309.28993784  .00007286  00000-0  47513-3 0  9999,2 53561  53.2165 304.1634 0001674 102.8395 257.2784 15.08858539 67179,6917.824,95.436,540.847,538.531,0.0
53561.0,STARLINK-4563,PAYLOAD,2023-11-05 16:29:49,15.08850908,0.000152,53.2166,302.3797,98.805,261.3114,0.00034284,5.174e-05,0.0,0 STARLINK-4563,1 53561U 22101AL  23309.68737815  .00005174  00000-0  34284-3 0  9999,2 53561  53.2166 302.3797 0001520  98.8050 261.3114 15.08850908 67234,6917.847,95.437,540.764,538.661,0.0
53561.0,STARLINK-4563,PAYLOAD,2023-11-06 08:23:40,15.08876635,0.0001715,53.2157,299.4039,111.0888,249.0288,0.0012178,0.00019166,0.0,0 STARLINK-4563,1 53561U 22101AL  23310.34976871  .00019166  00000-0  12178-2 0  9994,2 53561  53.2157 299.4039 0001715 111.0888 249.0288 15.08876635 67333,6917.768,95.435,540.82,538.447,0.0
53561.0,STARLINK-4563,PAYLOAD,2023-11-06 16:20:36,15.0883439,0.0002401,53.2162,297.9175,78.5414,281.5847,-9.9237e-06,-4.46e-06,0.0,0 STARLINK-4563,1 53561U 22101AL  23310.68098126 -.00000446  00000-0 -99237-5 0  9996,2 53561  53.2162 297.9175 0002401  78.5414 281.5847 15.08834390 67387,6917.898,95.438,541.424,538.102,0.0
53561.0,STARLINK-4563,PAYLOAD,2023-11-07 03:28:19,15.0879043,0.0001372,53.2162,295.8366,89.4046,270.7104,-0.0010544,-0.00017007,0.0,0 STARLINK-4563,1 53561U 22101AL  23311.14467479 -.00017007  00000-0 -10544-2 0  9991,2 53561  53.2162 295.8366 0001372  89.4046 270.7104 15.08790430 67454,6918.032,95.441,540.846,538.948,0.0
53561.0,STARLINK-4563,PAYLOAD,2023-11-07 08:14:29,15.08798877,0.0001454,53.2166,294.9439,79.8818,280.2339,-6.6497e-05,-1.345e-05,0.0,0 STARLINK-4563,1 53561U 22101AL  23311.34340128 -.00001345  00000-0 -66497-4 0  9992,2 53561  53.2166 294.9439 0001454  79.8818 280.2339 15.08798877 67482,6918.006,95.44,540.877,538.865,0.0
53561.0,STARLINK-4563,PAYLOAD,2023-11-07 16:11:26,15.08819534,0.000118,53.216,293.4606,71.841,288.2711,0.0013537,0.0002131,0.0,0 STARLINK-4563,1 53561U 22101AL  23311.67460706  .00021310  00000-0  13537-2 0  9990,2 53561  53.2160 293.4606 0001180  71.8410 288.2711 15.08819534 67534,6917.943,95.439,540.624,538.992,0.0
53561.0,STARLINK-4563,PAYLOAD,2023-11-08 04:54:30,15.08868905,0.0001093,53.2155,291.0802,68.641,291.4699,0.0016459,0.00026024,0.0,0 STARLINK-4563,1 53561U 22101AL  23312.20451989  .00026024  00000-0  16459-2 0  9996,2 53561  53.2155 291.0802 0001093  68.6410 291.4699 15.08868905 67613,6917.792,95.436,540.413,538.901,0.0
53561.0,STARLINK-4563,PAYLOAD,2023-11-08 06:29:53,15.08890719,0.00013,53.2159,290.7828,70.4815,289.6318,0.0027331,0.00043539,0.0,0 STARLINK-4563,1 53561U 22101AL  23312.27075746  .00043539  00000-0  27331-2 0  9997,2 53561  53.2159 290.7828 0001300  70.4815 289.6318 15.08890719 67628,6917.725,95.434,540.49,538.691,0.0
53561.0,STARLINK-4563,PAYLOAD,2023-11-08 16:02:11,15.08874462,0.0001555,53.2155,288.9999,70.176,289.94,0.0026579,0.00042307,0.0,0 STARLINK-4563,1 53561U 22101AL  23312.66819273  .00042307  00000-0  26579-2 0  9996,2 53561  53.2155 288.9999 0001555  70.1760 289.9400 15.08874462 67688,6917.775,95.435,540.716,538.564,0.0
53561.0,STARLINK-4563,PAYLOAD,2023-11-09 04:45:16,15.08864045,0.0001069,53.2156,286.6191,85.9967,274.1147,0.0015689,0.00024786,0.0,0 STARLINK-4563,1 53561U 22101AL  23313.19810710  .00024786  00000-0  15689-2 0  9993,2 53561  53.2156 286.6191 0001069  85.9967 274.1147 15.08864045 67760,6917.807,95.436,540.411,538.932,0.0
53561.0,STARLINK-4563,PAYLOAD,2023-11-09 15:52:58,15.08871118,0.0001356,53.2156,284.5373,83.8283,276.2863,0.0017471,0.0002765,0.0,0 STARLINK-4563,1 53561U 22101AL  23313.66178561  .00027650  00000-0  17471-2 0  9990,2 53561  53.2156 284.5373 0001356  83.8283 276.2863 15.08871118 67831,6917.785,95.436,540.588,538.712,0.0
53561.0,STARLINK-4563,PAYLOAD,2023-11-10 03:00:40,15.08844853,0.0001545,53.2159,282.4554,85.7468,274.37,0.0015497,0.00024465,0.0,0 STARLINK-4563,1 53561U 22101AL  23314.12546893  .00024465  00000-0  15497-2 0  9996,2 53561  53.2159 282.4554 0001545  85.7468 274.3700 15.08844853 67901,6917.866,95.437,540.799,538.662,0.0
53561.0,STARLINK-4563,PAYLOAD,2023-11-10 07:46:49,15.08848422,0.0001766,53.2158,281.5609,105.2748,254.844,0.0011173,0.00017543,0.0,0 STARLINK-4563,1 53561U 22101AL  23314.32418776  .00017543  00000-0  11173-2 0  9992,2 53561  53.2158 281.5609 0001766 105.2748 254.8440 15.08848422 67938,6917.855,95.437,540.941,538.498,0.0
53561.0,STARLINK-4563,PAYLOAD,2023-11-11 02:51:27,15.08839396,0.0001964,53.2169,277.9876,97.4132,262.7084,0.00043566,6.652e-05,0.0,0 STARLINK-4563,1 53561U 22101AL  23315.11907147  .00006652  00000-0  43566-3 0  9996,2 53561  53.2169 277.9876 0001964  97.4132 262.7084 15.08839396 68050,6917.882,95.438,541.106,538.389,0.0
53561.0,STARLINK-4563,PAYLOAD,2023-11-11 21:56:05,15.08840796,0.0002076,53.2174,274.4199,110.1073,250.0142,0.00017672,2.526e-05,0.0,0 STARLINK-4563,1 53561U 22101AL  23315.91395111  .00002526  00000-0  17672-3 0  9991,2 53561  53.2174 274.4199 0002076 110.1073 250.0142 15.08840796 68172,6917.878,95.438,541.179,538.307,0.0
53561.0,STARLINK-4563,PAYLOAD,2023-11-12 04:17:37,15.08846296,0.0001796,53.2169,273.2366,95.0265,265.0933,0.00020457,2.97e-05,0.0,0 STARLINK-4563,1 53561U 22101AL  23316.17890993  .00002970  00000-0  20457-3 0  9996,2 53561  53.2169 273.2366 0001796  95.0265 265.0933 15.08846296 68211,6917.861,95.437,540.969,538.484,0.0
53561.0,STARLINK-4563,PAYLOAD,2023-11-12 13:49:56,15.08843899,0.0001678,53.2167,271.448,95.1327,264.9857,0.00017284,2.464e-05,0.0,0 STARLINK-4563,1 53561U 22101AL  23316.57634944  .00002464  00000-0  17284-3 0  9994,2 53561  53.2167 271.4480 0001678  95.1327 264.9857 15.08843899 68270,6917.868,95.437,540.894,538.573,0.0
53561.0,STARLINK-4563,PAYLOAD,2023-11-13 02:33:02,15.08837853,0.0001791,53.2173,269.0702,89.5124,270.6073,-7.9632e-06,-4.15e-06,0.0,0 STARLINK-4563,1 53561U 22101AL  23317.10627360 -.00000415  00000-0 -79632-5 0  9991,2 53561  53.2173 269.0702 0001791  89.5124 270.6073 15.08837853 68351,6917.887,95.438,540.991,538.513,0.0
53561.0,STARLINK-4563,PAYLOAD,2023-11-13 13:40:43,15.08843206,0.0001695,53.2173,266.9924,92.0604,268.0582,0.00014865,2.079e-05,0.0,0 STARLINK-4563,1 53561U 22101AL  23317.56995197  .00002079  00000-0  14865-3 0  9998,2 53561  53.2173 266.9924 0001695  92.0604 268.0582 15.08843206 68421,6917.871,95.437,540.908,538.563,0.0
53561.0,STARLINK-4563,PAYLOAD,2023-11-13 20:02:16,15.08842013,0.0001772,53.2175,265.8038,94.884,265.2355,4.2596e-05,3.9e-06,0.0,0 STARLINK-4563,1 53561U 22101AL  23317.83491305  .00000390  00000-0  42596-4 0  9997,2 53561  53.2175 265.8038 0001772  94.8840 265.2355 15.08842013 68461,6917.874,95.437,540.965,538.513,0.0
53561.0,STARLINK-4563,PAYLOAD,2023-11-14 03:59:12,15.08838992,0.0001863,53.2179,264.3166,89.8314,270.2892,4.8031e-06,-2.12e-06,0.0,0 STARLINK-4563,1 53561U 22101AL  23318.16611525 -.00000212  00000-0  48031-5 0  9997,2 53561  53.2179 264.3166 0001863  89.8314 270.2892 15.08838992 68511,6917.883,95.438,541.037,538.46,0.0
53561.0,STARLINK-4563,PAYLOAD,2023-11-14 13:31:31,15.0884055,0.0001954,53.2182,262.5308,84.7792,275.3423,2.151e-05,5.4e-07,0.0,0 STARLINK-4563,1 53561U 22101AL  23318.56355499  .00000054  00000-0  21510-4 0  9991,2 53561  53.2182 262.5308 0001954  84.7792 275.3423 15.08840550 68573,6917.879,95.438,541.095,538.392,0.0
53561.0,STARLINK-4563,PAYLOAD,2023-11-15 05:25:22,15.08840927,0.0001817,53.2182,259.5553,87.8579,272.2622,6.1251e-05,6.87e-06,0.0,0 STARLINK-4563,1 53561U 22101AL  23319.22595588  .00000687  00000-0  61251-4 0  9998,2 53561  53.2182 259.5553 0001817  87.8579 272.2622 15.08840927 68672,6917.878,95.437,541.0,538.486,0.0
53561.0,STARLINK-4563,PAYLOAD,2023-11-16 05:16:09,15.08849626,0.0001749,53.2184,255.0936,90.2262,269.893,0.00012825,1.754e-05,0.0,0 STARLINK-4563,1 53561U 22101AL  23320.21955056  .00001754  00000-0  12825-3 0  9997,2 53561  53.2184 255.0936 0001749  90.2262 269.8930 15.08849626 68827,6917.851,95.437,540.926,538.506,0.0
53561.0,STARLINK-4563,PAYLOAD,2023-11-17 00:20:47,15.08836773,0.0001966,53.219,251.5221,74.8152,285.3057,5.9099e-05,6.52e-06,0.0,0 STARLINK-4563,1 53561U 22101AL  23321.01444004  .00000652  00000-0  59099-4 0  9993,2 53561  53.2190 251.5221 0001966  74.8152 285.3057 15.08836773 68944,6917.89,95.438,541.115,538.395,0.0
53561.0,STARLINK-4563,PAYLOAD,2023-11-17 13:03:52,15.08842269,0.0001532,53.2181,249.1453,95.5052,264.6115,2.7493e-05,1.5e-06,0.0,0 STARLINK-4563,1 53561U 22101AL  23321.54435609  .00000150  00000-0  27493-4 0  9998,2 53561  53.2181 249.1453 0001532  95.5052 264.6115 15.08842269 69024,6917.873,95.437,540.798,538.679,0.0
53561.0,STARLINK-4563,PAYLOAD,2023-11-17 22:36:11,15.08843515,0.0001698,53.2188,247.3643,94.2711,265.8475,-8.3738e-06,-4.21e-06,0.0,0 STARLINK-4563,1 53561U 22101AL  23321.94179795 -.00000421  00000-0 -83738-5 0  9991,2 53561  53.2188 247.3643 0001698  94.2711 265.8475 15.08843515 69086,6917.87,95.437,540.909,538.56,0.0
